EUTELSAT QUANTUM        
1 49056U 21069B   25209.55949128  .00000121  00000+0  00000+0 0  9995
2 49056   0.0359 270.1516 0001899 228.8429  56.5565  1.00271566 14686
EUTELSAT KONNECT VHTS   
1 53765U 22110A   25210.33580847  .00000016  00000+0  00000+0 0  9995
2 53765   0.0543  96.8271 0002556  31.9309 302.0950  1.00270776 10556
EUTELSAT HOTBIRD 13F    
1 54048U 22134A   25208.98162153  .00000080  00000+0  00000+0 0  9991
2 54048   0.0643 280.4240 0001881  79.9981 311.8529  1.00272436 10181
EUTELSAT HOTBIRD 13G    
1 54225U 22146A   25208.83882227  .00000080  00000+0  00000+0 0  9996
2 54225   0.0528 245.0357 0002181 297.6509  78.0065  1.00272623  4217
EUTELSAT 10B            
1 54259U 22157A   25210.33728182  .00000067  00000+0  00000+0 0  9997
2 54259   0.0477  93.5556 0001628  52.2478 292.8114  1.00271781  9815
EUTELSAT 36D            
1 59346U 24059A   25210.12823625  .00000153  00000+0  00000+0 0  9993
2 59346   0.0161  88.4380 0000329  79.1792 221.4250  1.00270422  4904
